CCSDS_OMM_VERS = 2.0
CREATION_DATE  = 
ORIGINATOR     = 

OBJECT_NAME    = STARLINK-36545
OBJECT_ID      = 2026-012N
CENTER_NAME    = EARTH
REF_FRAME      = TEME
TIME_SYSTEM    = UTC
MEAN_ELEMENT_THEORY = SGP/SGP4

EPOCH          = 2026-02-17T14:00:01.999872
MEAN_MOTION    = 15.32587175
ECCENTRICITY   = .00016543
INCLINATION    = 42.9998
RA_OF_ASC_NODE = 67.6634
ARG_OF_PERICENTER = 270.9108
MEAN_ANOMALY   = 322.9588

EPHEMERIS_TYPE = 0
CLASSIFICATION_TYPE = U
NORAD_CAT_ID   = 67505
ELEMENT_SET_NO = 999
REV_AT_EPOCH   = 584
BSTAR          = -.75502383E-1
MEAN_MOTION_DOT = -.2175932E-1
MEAN_MOTION_DDOT = 0

CCSDS_OMM_VERS = 2.0
CREATION_DATE  = 
ORIGINATOR     = 

OBJECT_NAME    = STARLINK-36553
OBJECT_ID      = 2026-012P
CENTER_NAME    = EARTH
REF_FRAME      = TEME
TIME_SYSTEM    = UTC
MEAN_ELEMENT_THEORY = SGP/SGP4

EPOCH          = 2026-02-17T14:00:01.999872
MEAN_MOTION    = 15.31433218
ECCENTRICITY   = .00019433
INCLINATION    = 42.9992
RA_OF_ASC_NODE = 67.6096
ARG_OF_PERICENTER = 289.5597
MEAN_ANOMALY   = 325.3841

EPHEMERIS_TYPE = 0
CLASSIFICATION_TYPE = U
NORAD_CAT_ID   = 67506
ELEMENT_SET_NO = 999
REV_AT_EPOCH   = 584
BSTAR          = -.80427029E-1
MEAN_MOTION_DOT = -.2228748E-1
MEAN_MOTION_DDOT = 0

CCSDS_OMM_VERS = 2.0
CREATION_DATE  = 
ORIGINATOR     = 

OBJECT_NAME    = STARLINK-36521
OBJECT_ID      = 2026-012Q
CENTER_NAME    = EARTH
REF_FRAME      = TEME
TIME_SYSTEM    = UTC
MEAN_ELEMENT_THEORY = SGP/SGP4

EPOCH          = 2026-02-17T14:00:01.999872
MEAN_MOTION    = 15.31885631
ECCENTRICITY   = .0001644
INCLINATION    = 42.9985
RA_OF_ASC_NODE = 67.5824
ARG_OF_PERICENTER = 287.5126
MEAN_ANOMALY   = 339.7054

EPHEMERIS_TYPE = 0
CLASSIFICATION_TYPE = U
NORAD_CAT_ID   = 67507
ELEMENT_SET_NO = 999
REV_AT_EPOCH   = 584
BSTAR          = -.79205909E-1
MEAN_MOTION_DOT = -.2226557E-1
MEAN_MOTION_DDOT = 0

CCSDS_OMM_VERS = 2.0
CREATION_DATE  = 
ORIGINATOR     = 

OBJECT_NAME    = STARLINK-36526
OBJECT_ID      = 2026-012R
CENTER_NAME    = EARTH
REF_FRAME      = TEME
TIME_SYSTEM    = UTC
MEAN_ELEMENT_THEORY = SGP/SGP4

EPOCH          = 2026-02-17T14:00:01.999872
MEAN_MOTION    = 15.32591638
ECCENTRICITY   = .00017699
INCLINATION    = 43.0002
RA_OF_ASC_NODE = 67.5366
ARG_OF_PERICENTER = 279.4032
MEAN_ANOMALY   = 5.1743

EPHEMERIS_TYPE = 0
CLASSIFICATION_TYPE = U
NORAD_CAT_ID   = 67508
ELEMENT_SET_NO = 999
REV_AT_EPOCH   = 584
BSTAR          = -.74798789E-1
MEAN_MOTION_DOT = -.2158044E-1
MEAN_MOTION_DDOT = 0

CCSDS_OMM_VERS = 2.0
CREATION_DATE  = 
ORIGINATOR     = 

OBJECT_NAME    = STARLINK-36541
OBJECT_ID      = 2026-012S
CENTER_NAME    = EARTH
REF_FRAME      = TEME
TIME_SYSTEM    = UTC
MEAN_ELEMENT_THEORY = SGP/SGP4

EPOCH          = 2026-02-17T12:47:50.706528
MEAN_MOTION    = 15.38487870
ECCENTRICITY   = .00016465
INCLINATION    = 43.0000
RA_OF_ASC_NODE = 68.7316
ARG_OF_PERICENTER = 327.0151
MEAN_ANOMALY   = 33.0602

EPHEMERIS_TYPE = 0
CLASSIFICATION_TYPE = U
NORAD_CAT_ID   = 67509
ELEMENT_SET_NO = 999
REV_AT_EPOCH   = 467
BSTAR          = -.87126756E-2
MEAN_MOTION_DOT = -.324602E-2
MEAN_MOTION_DDOT = 0

CCSDS_OMM_VERS = 2.0
CREATION_DATE  = 
ORIGINATOR     = 

OBJECT_NAME    = STARLINK-36549
OBJECT_ID      = 2026-012T
CENTER_NAME    = EARTH
REF_FRAME      = TEME
TIME_SYSTEM    = UTC
MEAN_ELEMENT_THEORY = SGP/SGP4

EPOCH          = 2026-02-17T14:00:01.999872
MEAN_MOTION    = 15.29939304
ECCENTRICITY   = .00007909
INCLINATION    = 42.9997
RA_OF_ASC_NODE = 67.5141
ARG_OF_PERICENTER = 289.8920
MEAN_ANOMALY   = 359.4773

EPHEMERIS_TYPE = 0
CLASSIFICATION_TYPE = U
NORAD_CAT_ID   = 67510
ELEMENT_SET_NO = 999
REV_AT_EPOCH   = 578
BSTAR          = -.74765075E-1
MEAN_MOTION_DOT = -.2000239E-1
MEAN_MOTION_DDOT = 0

CCSDS_OMM_VERS = 2.0
CREATION_DATE  = 
ORIGINATOR     = 

OBJECT_NAME    = STARLINK-36540
OBJECT_ID      = 2026-012U
CENTER_NAME    = EARTH
REF_FRAME      = TEME
TIME_SYSTEM    = UTC
MEAN_ELEMENT_THEORY = SGP/SGP4

EPOCH          = 2026-02-17T12:45:55.246752
MEAN_MOTION    = 15.38304740
ECCENTRICITY   = .00017519
INCLINATION    = 42.9999
RA_OF_ASC_NODE = 68.7219
ARG_OF_PERICENTER = 327.3237
MEAN_ANOMALY   = 32.7510

EPHEMERIS_TYPE = 0
CLASSIFICATION_TYPE = U
NORAD_CAT_ID   = 67511
ELEMENT_SET_NO = 999
REV_AT_EPOCH   = 467
BSTAR          = -.89553657E-2
MEAN_MOTION_DOT = -.331353E-2
MEAN_MOTION_DDOT = 0

CCSDS_OMM_VERS = 2.0
CREATION_DATE  = 
ORIGINATOR     = 

OBJECT_NAME    = STARLINK-36538
OBJECT_ID      = 2026-012V
CENTER_NAME    = EARTH
REF_FRAME      = TEME
TIME_SYSTEM    = UTC
MEAN_ELEMENT_THEORY = SGP/SGP4

EPOCH          = 2026-02-17T14:00:01.999872
MEAN_MOTION    = 15.27565421
ECCENTRICITY   = .00020594
INCLINATION    = 43.0003
RA_OF_ASC_NODE = 68.1844
ARG_OF_PERICENTER = 289.7500
MEAN_ANOMALY   = 87.8670

EPHEMERIS_TYPE = 0
CLASSIFICATION_TYPE = U
NORAD_CAT_ID   = 67512
ELEMENT_SET_NO = 999
REV_AT_EPOCH   = 584
BSTAR          = .19301234E-2
MEAN_MOTION_DOT = .53212E-3
MEAN_MOTION_DDOT = 0

CCSDS_OMM_VERS = 2.0
CREATION_DATE  = 
ORIGINATOR     = 

OBJECT_NAME    = STARLINK-36531
OBJECT_ID      = 2026-012W
CENTER_NAME    = EARTH
REF_FRAME      = TEME
TIME_SYSTEM    = UTC
MEAN_ELEMENT_THEORY = SGP/SGP4

EPOCH          = 2026-02-17T14:00:01.999872
MEAN_MOTION    = 15.27541557
ECCENTRICITY   = .00007757
INCLINATION    = 42.9999
RA_OF_ASC_NODE = 68.0459
ARG_OF_PERICENTER = 306.9055
MEAN_ANOMALY   = 127.2898

EPHEMERIS_TYPE = 0
CLASSIFICATION_TYPE = U
NORAD_CAT_ID   = 67513
ELEMENT_SET_NO = 999
REV_AT_EPOCH   = 578
BSTAR          = .22101147E-2
MEAN_MOTION_DOT = .60988E-3
MEAN_MOTION_DDOT = 0

CCSDS_OMM_VERS = 2.0
CREATION_DATE  = 
ORIGINATOR     = 

OBJECT_NAME    = STARLINK-36530
OBJECT_ID      = 2026-012X
CENTER_NAME    = EARTH
REF_FRAME      = TEME
TIME_SYSTEM    = UTC
MEAN_ELEMENT_THEORY = SGP/SGP4

EPOCH          = 2026-02-17T14:00:01.999872
MEAN_MOTION    = 15.28391796
ECCENTRICITY   = .0001116
INCLINATION    = 43.0003
RA_OF_ASC_NODE = 68.0372
ARG_OF_PERICENTER = 263.3786
MEAN_ANOMALY   = 174.5848

EPHEMERIS_TYPE = 0
CLASSIFICATION_TYPE = U
NORAD_CAT_ID   = 67514
ELEMENT_SET_NO = 999
REV_AT_EPOCH   = 578
BSTAR          = .19374812E-2
MEAN_MOTION_DOT = .54797E-3
MEAN_MOTION_DDOT = 0

CCSDS_OMM_VERS = 2.0
CREATION_DATE  = 
ORIGINATOR     = 

OBJECT_NAME    = STARLINK-36543
OBJECT_ID      = 2026-012Y
CENTER_NAME    = EARTH
REF_FRAME      = TEME
TIME_SYSTEM    = UTC
MEAN_ELEMENT_THEORY = SGP/SGP4

EPOCH          = 2026-02-17T14:00:01.999872
MEAN_MOTION    = 15.28374325
ECCENTRICITY   = .00016228
INCLINATION    = 43.0006
RA_OF_ASC_NODE = 68.0369
ARG_OF_PERICENTER = 271.9014
MEAN_ANOMALY   = 166.9398

EPHEMERIS_TYPE = 0
CLASSIFICATION_TYPE = U
NORAD_CAT_ID   = 67515
ELEMENT_SET_NO = 999
REV_AT_EPOCH   = 578
BSTAR          = .19430081E-2
MEAN_MOTION_DOT = .54926E-3
MEAN_MOTION_DDOT = 0

CCSDS_OMM_VERS = 2.0
CREATION_DATE  = 
ORIGINATOR     = 

OBJECT_NAME    = STARLINK-36537
OBJECT_ID      = 2026-012Z
CENTER_NAME    = EARTH
REF_FRAME      = TEME
TIME_SYSTEM    = UTC
MEAN_ELEMENT_THEORY = SGP/SGP4

EPOCH          = 2026-02-17T14:00:01.999872
MEAN_MOTION    = 15.28369558
ECCENTRICITY   = .00009118
INCLINATION    = 43.0000
RA_OF_ASC_NODE = 67.8635
ARG_OF_PERICENTER = 294.2542
MEAN_ANOMALY   = 214.3945

EPHEMERIS_TYPE = 0
CLASSIFICATION_TYPE = U
NORAD_CAT_ID   = 67516
ELEMENT_SET_NO = 999
REV_AT_EPOCH   = 578
BSTAR          = .18285823E-2
MEAN_MOTION_DOT = .51645E-3
MEAN_MOTION_DDOT = 0

