STARLINK-36545          
1 67505U 26012N   26048.58335648 -.02175932  00000+0 -75502-1 0  9996
2 67505  42.9998  67.6634 0001654 270.9108 322.9588 15.32587175  5849
STARLINK-36553          
1 67506U 26012P   26048.58335648 -.02228748  00000+0 -80427-1 0  9993
2 67506  42.9992  67.6096 0001943 289.5597 325.3841 15.31433218  5841
STARLINK-36521          
1 67507U 26012Q   26048.58335648 -.02226557  00000+0 -79206-1 0  9993
2 67507  42.9985  67.5824 0001644 287.5126 339.7054 15.31885631  5841
STARLINK-36526          
1 67508U 26012R   26048.58335648 -.02158044  00000+0 -74799-1 0  9991
2 67508  43.0002  67.5366 0001769 279.4032   5.1743 15.32591638  5840
STARLINK-36541          
1 67509U 26012S   26048.53322577 -.00324602  00000+0 -87127-2 0  9997
2 67509  43.0000  68.7316 0001646 327.0151  33.0602 15.38487870  4675
STARLINK-36549          
1 67510U 26012T   26048.58335648 -.02000239  00000+0 -74765-1 0  9999
2 67510  42.9997  67.5141 0000790 289.8920 359.4773 15.29939304  5782
STARLINK-36540          
1 67511U 26012U   26048.53188943 -.00331353  00000+0 -89554-2 0  9994
2 67511  42.9999  68.7219 0001751 327.3237  32.7510 15.38304740  4678
STARLINK-36538          
1 67512U 26012V   26048.58335648  .00053212  00000+0  19301-2 0  9992
2 67512  43.0003  68.1844 0002059 289.7500  87.8670 15.27565421  5842
STARLINK-36531          
1 67513U 26012W   26048.58335648  .00060988  00000+0  22101-2 0  9993
2 67513  42.9999  68.0459 0000775 306.9055 127.2898 15.27541557  5784
STARLINK-36530          
1 67514U 26012X   26048.58335648  .00054797  00000+0  19375-2 0  9994
2 67514  43.0003  68.0372 0001116 263.3786 174.5848 15.28391796  5783
STARLINK-36543          
1 67515U 26012Y   26048.58335648  .00054926  00000+0  19430-2 0  9991
2 67515  43.0006  68.0369 0001622 271.9014 166.9398 15.28374325  5788
STARLINK-36537          
1 67516U 26012Z   26048.58335648  .00051645  00000+0  18286-2 0  9995
2 67516  43.0000  67.8635 0000911 294.2542 214.3945 15.28369558  5788
